ONEWEB-0034             
1 45454U 20020AG  26018.58383848 -.00000323  00000+0 -94726-3 0  9990
2 45454  87.8826  50.8350 0001793  94.5895 265.5438 13.11419040282980
ONEWEB-0060             
1 45455U 20020AH  26018.63130298  .00000002  00000+0 -30579-4 0  9996
2 45455  87.8813  50.8399 0001833  61.4794 298.6519 13.11413406282949
ONEWEB-0086             
1 45456U 20020AJ  26018.53382098  .00000640  00000+0  17695-2 0  9992
2 45456  87.8824  50.8425 0001205  76.4372 283.6891 13.11417827282996
ONEWEB-0088             
1 45457U 20020AK  26018.58805847 -.00000233  00000+0 -69462-3 0  9990
2 45457  87.8836  50.7909 0002069  93.8606 266.2758 13.11420058282931
ONEWEB-0102             
1 47258U 20100A   26018.55664447 -.00000333  00000+0 -96062-3 0  9993
2 47258  87.8923  20.3920 0001575  84.9565 275.1744 13.12442238245108
ONEWEB-0109             
1 47259U 20100B   26018.48886922 -.00000387  00000+0 -11113-2 0  9992
2 47259  87.8931  20.3763 0001684  91.8045 268.3276 13.12443639244923
ONEWEB-0110             
1 47260U 20100C   26018.51598938  .00000266  00000+0  70274-3 0  9993
2 47260  87.8930  20.3558 0001590  81.2774 278.8534 13.12444527245093
ONEWEB-0111             
1 47261U 20100D   26018.54646698  .00000040  00000+0  76984-4 0  9999
2 47261  87.8929  20.3678 0001799  84.1942 275.9391 13.12443265244934
ONEWEB-0114             
1 47262U 20100E   26018.42449427 -.00000163  00000+0 -48915-3 0  9998
2 47262  87.8932  20.3873 0001777 101.3220 258.8108 13.12444938244870
ONEWEB-0117             
1 47263U 20100F   26018.41602893 -.00000346  00000+0 -99635-3 0  9994
2 47263  87.8928  20.3848 0001723  88.0635 272.0691 13.12443953244882
ONEWEB-0118             
1 47264U 20100G   26018.52616902  .00000426  00000+0  11498-2 0  9990
2 47264  87.8931  20.3639 0001989  96.9783 263.1572 13.12443560245098
ONEWEB-0119             
1 47265U 20100H   26018.55156478 -.00000147  00000+0 -44414-3 0  9998
2 47265  87.8920  20.3892 0001754  89.3146 270.8184 13.12443385245074
ONEWEB-0120             
1 47266U 20100J   26018.42294442 -.00000151  00000+0 -45506-3 0  9997
2 47266  87.8921  20.4158 0001755  92.0486 268.0844 13.12443955245087
ONEWEB-0121             
1 47267U 20100K   26018.48717773 -.00000374  00000+0 -10739-2 0  9997
2 47267  87.8929  20.3744 0001681  81.9425 278.1894 13.12442126245002
ONEWEB-0122             
1 47268U 20100L   26018.55818259 -.00000315  00000+0 -91114-3 0  9999
2 47268  87.8930  20.3628 0001635  90.0920 270.0396 13.12441013244928
ONEWEB-0123             
1 47269U 20100M   26018.55324527 -.00000205  00000+0 -60613-3 0  9998
2 47269  87.8922  20.3873 0001847  90.0917 270.0423 13.12440766245064
