[{"OBJECT_NAME":"ONEWEB-0034","OBJECT_ID":"2020-020AG","EPOCH":"2026-01-18T14:00:43.644672","MEAN_MOTION":13.1141904,"ECCENTRICITY":0.00017938,"INCLINATION":87.8826,"RA_OF_ASC_NODE":50.835,"ARG_OF_PERICENTER":94.5895,"MEAN_ANOMALY":265.5438,"EPHEMERIS_TYPE":0,"CLASSIFICATION_TYPE":"U","NORAD_CAT_ID":45454,"ELEMENT_SET_NO":999,"REV_AT_EPOCH":28298,"BSTAR":-0.00094726434,"MEAN_MOTION_DOT":-3.23e-6,"MEAN_MOTION_DDOT":0},{"OBJECT_NAME":"ONEWEB-0060","OBJECT_ID":"2020-020AH","EPOCH":"2026-01-18T15:09:04.577472","MEAN_MOTION":13.11413406,"ECCENTRICITY":0.00018336,"INCLINATION":87.8813,"RA_OF_ASC_NODE":50.8399,"ARG_OF_PERICENTER":61.4794,"MEAN_ANOMALY":298.6519,"EPHEMERIS_TYPE":0,"CLASSIFICATION_TYPE":"U","NORAD_CAT_ID":45455,"ELEMENT_SET_NO":999,"REV_AT_EPOCH":28294,"BSTAR":-3.0579013e-5,"MEAN_MOTION_DOT":2.0e-8,"MEAN_MOTION_DDOT":0},{"OBJECT_NAME":"ONEWEB-0086","OBJECT_ID":"2020-020AJ","EPOCH":"2026-01-18T12:48:42.132672","MEAN_MOTION":13.11417827,"ECCENTRICITY":0.00012055,"INCLINATION":87.8824,"RA_OF_ASC_NODE":50.8425,"ARG_OF_PERICENTER":76.4372,"MEAN_ANOMALY":283.6891,"EPHEMERIS_TYPE":0,"CLASSIFICATION_TYPE":"U","NORAD_CAT_ID":45456,"ELEMENT_SET_NO":999,"REV_AT_EPOCH":28299,"BSTAR":0.0017694796,"MEAN_MOTION_DOT":6.4e-6,"MEAN_MOTION_DDOT":0},{"OBJECT_NAME":"ONEWEB-0088","OBJECT_ID":"2020-020AK","EPOCH":"2026-01-18T14:06:48.251808","MEAN_MOTION":13.11420058,"ECCENTRICITY":0.00020699,"INCLINATION":87.8836,"RA_OF_ASC_NODE":50.7909,"ARG_OF_PERICENTER":93.8606,"MEAN_ANOMALY":266.2758,"EPHEMERIS_TYPE":0,"CLASSIFICATION_TYPE":"U","NORAD_CAT_ID":45457,"ELEMENT_SET_NO":999,"REV_AT_EPOCH":28293,"BSTAR":-0.00069462059,"MEAN_MOTION_DOT":-2.33e-6,"MEAN_MOTION_DDOT":0},{"OBJECT_NAME":"ONEWEB-0102","OBJECT_ID":"2020-100A","EPOCH":"2026-01-18T13:21:34.082208","MEAN_MOTION":13.12442238,"ECCENTRICITY":0.00015757,"INCLINATION":87.8923,"RA_OF_ASC_NODE":20.392,"ARG_OF_PERICENTER":84.9565,"MEAN_ANOMALY":275.1744,"EPHEMERIS_TYPE":0,"CLASSIFICATION_TYPE":"U","NORAD_CAT_ID":47258,"ELEMENT_SET_NO":999,"REV_AT_EPOCH":24510,"BSTAR":-0.00096061655,"MEAN_MOTION_DOT":-3.33e-6,"MEAN_MOTION_DDOT":0},{"OBJECT_NAME":"ONEWEB-0109","OBJECT_ID":"2020-100B","EPOCH":"2026-01-18T11:43:58.300608","MEAN_MOTION":13.12443639,"ECCENTRICITY":0.00016844,"INCLINATION":87.8931,"RA_OF_ASC_NODE":20.3763,"ARG_OF_PERICENTER":91.8045,"MEAN_ANOMALY":268.3276,"EPHEMERIS_TYPE":0,"CLASSIFICATION_TYPE":"U","NORAD_CAT_ID":47259,"ELEMENT_SET_NO":999,"REV_AT_EPOCH":24492,"BSTAR":-0.00111125,"MEAN_MOTION_DOT":-3.87e-6,"MEAN_MOTION_DDOT":0},{"OBJECT_NAME":"ONEWEB-0110","OBJECT_ID":"2020-100C","EPOCH":"2026-01-18T12:23:01.482432","MEAN_MOTION":13.12444527,"ECCENTRICITY":0.00015909,"INCLINATION":87.893,"RA_OF_ASC_NODE":20.3558,"ARG_OF_PERICENTER":81.2774,"MEAN_ANOMALY":278.8534,"EPHEMERIS_TYPE":0,"CLASSIFICATION_TYPE":"U","NORAD_CAT_ID":47260,"ELEMENT_SET_NO":999,"REV_AT_EPOCH":24509,"BSTAR":0.00070273724,"MEAN_MOTION_DOT":2.66e-6,"MEAN_MOTION_DDOT":0},{"OBJECT_NAME":"ONEWEB-0111","OBJECT_ID":"2020-100D","EPOCH":"2026-01-18T13:06:54.747072","MEAN_MOTION":13.12443265,"ECCENTRICITY":0.0001799,"INCLINATION":87.8929,"RA_OF_ASC_NODE":20.3678,"ARG_OF_PERICENTER":84.1942,"MEAN_ANOMALY":275.9391,"EPHEMERIS_TYPE":0,"CLASSIFICATION_TYPE":"U","NORAD_CAT_ID":47261,"ELEMENT_SET_NO":999,"REV_AT_EPOCH":24493,"BSTAR":7.6984062e-5,"MEAN_MOTION_DOT":4.0e-7,"MEAN_MOTION_DDOT":0},{"OBJECT_NAME":"ONEWEB-0114","OBJECT_ID":"2020-100E","EPOCH":"2026-01-18T10:11:16.304928","MEAN_MOTION":13.12444938,"ECCENTRICITY":0.00017779,"INCLINATION":87.8932,"RA_OF_ASC_NODE":20.3873,"ARG_OF_PERICENTER":101.322,"MEAN_ANOMALY":258.8108,"EPHEMERIS_TYPE":0,"CLASSIFICATION_TYPE":"U","NORAD_CAT_ID":47262,"ELEMENT_SET_NO":999,"REV_AT_EPOCH":24487,"BSTAR":-0.00048915243,"MEAN_MOTION_DOT":-1.63e-6,"MEAN_MOTION_DDOT":0},{"OBJECT_NAME":"ONEWEB-0117","OBJECT_ID":"2020-100F","EPOCH":"2026-01-18T09:59:04.899552","MEAN_MOTION":13.12443953,"ECCENTRICITY":0.00017237,"INCLINATION":87.8928,"RA_OF_ASC_NODE":20.3848,"ARG_OF_PERICENTER":88.0635,"MEAN_ANOMALY":272.0691,"EPHEMERIS_TYPE":0,"CLASSIFICATION_TYPE":"U","NORAD_CAT_ID":47263,"ELEMENT_SET_NO":999,"REV_AT_EPOCH":24488,"BSTAR":-0.00099634585,"MEAN_MOTION_DOT":-3.46e-6,"MEAN_MOTION_DDOT":0},{"OBJECT_NAME":"ONEWEB-0118","OBJECT_ID":"2020-100G","EPOCH":"2026-01-18T12:37:41.003328","MEAN_MOTION":13.1244356,"ECCENTRICITY":0.00019891,"INCLINATION":87.8931,"RA_OF_ASC_NODE":20.3639,"ARG_OF_PERICENTER":96.9783,"MEAN_ANOMALY":263.1572,"EPHEMERIS_TYPE":0,"CLASSIFICATION_TYPE":"U","NORAD_CAT_ID":47264,"ELEMENT_SET_NO":999,"REV_AT_EPOCH":24509,"BSTAR":0.0011498005,"MEAN_MOTION_DOT":4.26e-6,"MEAN_MOTION_DDOT":0},{"OBJECT_NAME":"ONEWEB-0119","OBJECT_ID":"2020-100H","EPOCH":"2026-01-18T13:14:15.196992","MEAN_MOTION":13.12443385,"ECCENTRICITY":0.00017549,"INCLINATION":87.892,"RA_OF_ASC_NODE":20.3892,"ARG_OF_PERICENTER":89.3146,"MEAN_ANOMALY":270.8184,"EPHEMERIS_TYPE":0,"CLASSIFICATION_TYPE":"U","NORAD_CAT_ID":47265,"ELEMENT_SET_NO":999,"REV_AT_EPOCH":24507,"BSTAR":-0.00044413673,"MEAN_MOTION_DOT":-1.47e-6,"MEAN_MOTION_DDOT":0},{"OBJECT_NAME":"ONEWEB-0120","OBJECT_ID":"2020-100J","EPOCH":"2026-01-18T10:09:02.397888","MEAN_MOTION":13.12443955,"ECCENTRICITY":0.00017554,"INCLINATION":87.8921,"RA_OF_ASC_NODE":20.4158,"ARG_OF_PERICENTER":92.0486,"MEAN_ANOMALY":268.0844,"EPHEMERIS_TYPE":0,"CLASSIFICATION_TYPE":"U","NORAD_CAT_ID":47266,"ELEMENT_SET_NO":999,"REV_AT_EPOCH":24508,"BSTAR":-0.00045506384,"MEAN_MOTION_DOT":-1.51e-6,"MEAN_MOTION_DDOT":0},{"OBJECT_NAME":"ONEWEB-0121","OBJECT_ID":"2020-100K","EPOCH":"2026-01-18T11:41:32.155872","MEAN_MOTION":13.12442126,"ECCENTRICITY":0.0001681,"INCLINATION":87.8929,"RA_OF_ASC_NODE":20.3744,"ARG_OF_PERICENTER":81.9425,"MEAN_ANOMALY":278.1894,"EPHEMERIS_TYPE":0,"CLASSIFICATION_TYPE":"U","NORAD_CAT_ID":47267,"ELEMENT_SET_NO":999,"REV_AT_EPOCH":24500,"BSTAR":-0.0010739292,"MEAN_MOTION_DOT":-3.74e-6,"MEAN_MOTION_DDOT":0},{"OBJECT_NAME":"ONEWEB-0122","OBJECT_ID":"2020-100L","EPOCH":"2026-01-18T13:23:46.975776","MEAN_MOTION":13.12441013,"ECCENTRICITY":0.00016354,"INCLINATION":87.893,"RA_OF_ASC_NODE":20.3628,"ARG_OF_PERICENTER":90.092,"MEAN_ANOMALY":270.0396,"EPHEMERIS_TYPE":0,"CLASSIFICATION_TYPE":"U","NORAD_CAT_ID":47268,"ELEMENT_SET_NO":999,"REV_AT_EPOCH":24492,"BSTAR":-0.00091114021,"MEAN_MOTION_DOT":-3.15e-6,"MEAN_MOTION_DDOT":0},{"OBJECT_NAME":"ONEWEB-0123","OBJECT_ID":"2020-100M","EPOCH":"2026-01-18T13:16:40.391328","MEAN_MOTION":13.12440766,"ECCENTRICITY":0.0001847,"INCLINATION":87.8922,"RA_OF_ASC_NODE":20.3873,"ARG_OF_PERICENTER":90.0917,"MEAN_ANOMALY":270.0423,"EPHEMERIS_TYPE":0,"CLASSIFICATION_TYPE":"U","NORAD_CAT_ID":47269,"ELEMENT_SET_NO":999,"REV_AT_EPOCH":24506,"BSTAR":-0.00060613187,"MEAN_MOTION_DOT":-2.05e-6,"MEAN_MOTION_DDOT":0}]
